OBJECT_NAME,OBJECT_ID,EPOCH,MEAN_MOTION,ECCENTRICITY,INCLINATION,RA_OF_ASC_NODE,ARG_OF_PERICENTER,MEAN_ANOMALY,EPHEMERIS_TYPE,CLASSIFICATION_TYPE,NORAD_CAT_ID,ELEMENT_SET_NO,REV_AT_EPOCH,BSTAR,MEAN_MOTION_DOT,MEAN_MOTION_DDOT
FENGYUN 1C DEB,1999-025ANW,2021-02-09T14:38:14.866656,14.10162403,.0090136,99.0586,103.8191,260.4249,98.6727,0,U,30639,999,71744,.20944E-3,.339E-5,0
FENGYUN 1C DEB,1999-025ANX,2021-02-09T12:41:08.107584,14.04505115,.0090264,99.2025,70.3988,350.2805,173.2492,0,U,30640,999,71574,.42086E-3,.65E-5,0
FENGYUN 1C DEB,1999-025ANY,2021-02-09T13:04:13.340640,14.62417151,.0175692,98.9318,145.1447,189.3144,182.5535,0,U,30641,999,74618,.77558E-4,.421E-5,0
FENGYUN 1C DEB,1999-025ANZ,2021-02-09T02:07:06.802752,14.67747171,.0059489,99.0322,92.9029,136.1052,256.8308,0,U,30642,999,73990,.3769E-3,.2144E-4,0
FENGYUN 1C DEB,1999-025APC,2021-02-09T10:29:33.837216,15.06265871,.0031412,98.9453,198.3754,86.7002,341.2143,0,U,30645,999,74785,.60431E-3,.8895E-4,0
FENGYUN 1C DEB,1999-025APD,2021-02-09T10:39:28.403136,14.05305744,.0049302,98.8308,99.5760,329.6484,30.1831,0,U,30646,999,71755,.25297E-3,.371E-5,0
FENGYUN 1C DEB,1999-025APE,2021-02-09T19:25:51.948192,14.28808656,.0045934,99.0665,226.0429,313.7957,163.8814,0,U,30647,999,72671,.33327E-3,.801E-5,0
FENGYUN 1C DEB,1999-025APF,2021-02-09T04:15:26.328384,14.25571847,.0046928,98.7292,111.3051,286.6377,134.1331,0,U,30648,999,72556,.30141E-3,.677E-5,0
FENGYUN 1C DEB,1999-025APG,2021-02-09T11:59:58.616736,14.14412806,.0064253,98.8781,118.7046,197.5940,280.7063,0,U,30649,999,71991,.27632E-3,.495E-5,0
FENGYUN 1C DEB,1999-025APH,2021-02-09T04:04:46.329888,14.03496706,.0083561,99.2081,21.2275,57.4398,4.6872,0,U,30650,999,71436,.55854E-3,.857E-5,0
FENGYUN 1C DEB,1999-025APJ,2021-02-09T08:11:02.579712,14.07093801,.000852,99.0165,79.1526,177.5776,193.7595,0,U,30652,999,71834,-.12886E-4,-.66E-6,0
FENGYUN 1C DEB,1999-025APL,2021-02-09T11:54:40.898016,14.09248329,.0038503,99.3575,240.5291,356.5172,3.5723,0,U,30654,999,71740,.23972E-3,.372E-5,0
FENGYUN 1C DEB,1999-025APM,2021-02-09T13:09:28.514880,14.28849748,.0020331,98.7840,5.7972,174.9289,248.9131,0,U,30655,999,72270,.41544E-3,.1005E-4,0
FENGYUN 1C DEB,1999-025APN,2021-02-09T13:40:07.398048,14.18247942,.0052901,98.9637,145.4807,150.1799,210.2408,0,U,30656,999,71913,.28639E-3,.552E-5,0
FENGYUN 1C DEB,1999-025APP,2021-02-09T11:05:17.308032,14.18819407,.002278,98.9331,97.4656,62.2629,63.5194,0,U,30657,999,72059,.35509E-3,.695E-5,0
FENGYUN 1C DEB,1999-025APQ,2021-02-09T05:26:23.534592,13.77614119,.0200818,98.4299,233.6737,359.9987,0.1134,0,U,30658,999,70283,.54962E-3,.599E-5,0
FENGYUN 1C DEB,1999-025APR,2021-02-09T11:37:34.154976,14.83920745,.0148842,99.0377,283.1983,289.5509,193.8800,0,U,30659,999,75199,.1305E-3,.1235E-4,0
FENGYUN 1C DEB,1999-025APS,2021-02-08T22:25:27.936768,14.65528943,.0194008,98.3015,98.1272,201.0114,333.5553,0,U,30660,999,74768,.60071E-4,.366E-5,0
FENGYUN 1C DEB,1999-025APT,2021-02-09T09:05:47.447232,14.19374935,.014711,99.4715,79.2275,347.2104,12.5354,0,U,30661,999,72819,.30333E-4,.2E-6,0
FENGYUN 1C DEB,1999-025APU,2021-02-08T10:36:20.556576,14.10916843,.0038391,99.1345,37.5931,222.9265,295.7017,0,U,30662,999,71629,.37458E-3,.63E-5,0
FENGYUN 1C DEB,1999-025APV,2021-02-09T04:53:20.455008,13.08755642,.070682,99.3043,142.2615,28.6761,335.1384,0,U,30663,999,65840,.4524E-3,.501E-5,0
FENGYUN 1C DEB,1999-025APW,2021-02-09T13:27:38.354112,14.70675994,.0048105,99.0118,85.3573,102.7185,257.9402,0,U,30664,999,73834,.45256E-3,.2744E-4,0
FENGYUN 1C DEB,1999-025APX,2021-02-09T18:10:33.915072,14.00595830,.0084313,99.0897,336.3750,58.4345,332.0629,0,U,30665,999,71203,.77097E-3,.1138E-4,0
FENGYUN 1C DEB,1999-025APY,2021-02-09T12:58:03.680832,14.00563550,.0059255,98.8423,66.8553,30.4543,121.9781,0,U,30666,999,71361,.11774E-3,.135E-5,0
FENGYUN 1C DEB,1999-025APZ,2021-02-09T12:46:54.855840,15.20376286,.0078703,98.8837,345.4125,195.6119,164.2683,0,U,30667,999,75733,.24269E-3,.5643E-4,0
FENGYUN 1C DEB,1999-025AQA,2021-02-09T13:54:11.841408,14.01593434,.0092559,99.2386,70.4446,106.9796,43.9635,0,U,30668,999,71251,.25435E-3,.355E-5,0
FENGYUN 1C DEB,1999-025AQB,2021-02-09T09:03:32.162976,13.92537822,.0140687,98.5775,73.5431,50.0858,323.6956,0,U,30669,999,70792,.49863E-3,.658E-5,0
FENGYUN 1C DEB,1999-025AQC,2021-02-09T13:37:00.900192,14.14898076,.0040261,98.9611,80.1489,61.7526,90.6974,0,U,30670,999,72156,.30798E-4,.15E-6,0
FENGYUN 1C DEB,1999-025AQD,2021-02-09T09:19:04.476864,13.88322288,.0138147,99.3894,77.7375,116.6689,257.7819,0,U,30671,999,70625,.41336E-3,.49E-5,0
FENGYUN 1C DEB,1999-025AQE,2021-02-09T18:10:11.565984,14.88786404,.0057389,99.0590,223.2050,169.4611,190.7820,0,U,30672,999,74510,.47003E-3,.4462E-4,0
FENGYUN 1C DEB,1999-025AQF,2021-02-09T18:05:07.037952,14.02305937,.0052218,99.1628,81.5409,2.4085,62.9676,0,U,30673,999,71847,.1672E-3,.214E-5,0
FENGYUN 1C DEB,1999-025AQG,2021-02-09T10:54:50.966784,14.21988166,.0066462,98.9889,102.5314,123.0847,237.6734,0,U,30674,999,71943,.5454E-3,.1187E-4,0
FENGYUN 1C DEB,1999-025AQH,2021-02-09T10:55:18.162048,14.14174500,.0064294,98.8624,110.7837,194.4745,178.4418,0,U,30675,999,71832,.30114E-3,.541E-5,0
FENGYUN 1C DEB,1999-025AQJ,2021-02-09T13:16:26.080896,13.64889298,.0506755,98.2977,83.8707,114.7120,250.7647,0,U,30676,999,69756,.20558E-3,.368E-5,0
FENGYUN 1C DEB,1999-025AQK,2021-02-09T06:04:08.724864,14.24512547,.0078453,98.3597,143.4828,34.7625,19.0745,0,U,30677,999,72732,.18129E-3,.393E-5,0
FENGYUN 1C DEB,1999-025AQL,2021-02-09T06:20:23.538048,14.00889508,.0099969,99.0546,329.5531,135.4773,17.9209,0,U,30678,999,70991,.87945E-3,.1329E-4,0
FENGYUN 1C DEB,1999-025AQM,2021-02-09T01:25:28.905312,13.76727685,.017607,99.5688,73.9598,36.9189,351.3680,0,U,30679,999,70176,.23569E-3,.214E-5,0
FENGYUN 1C DEB,1999-025AQN,2021-02-09T13:06:49.104288,13.41801117,.0366161,99.5191,137.3803,239.5270,116.9224,0,U,30680,999,68460,.34238E-2,.2805E-4,0
FENGYUN 1C DEB,1999-025AQR,2021-02-09T20:20:52.755648,13.90846103,.0159098,99.3306,1.6486,325.2855,62.4234,0,U,30683,999,70945,.30231E-3,.373E-5,0
FENGYUN 1C DEB,1999-025AQS,2021-02-09T14:38:40.278624,13.62902596,.0244039,99.6591,82.0426,106.8963,49.0141,0,U,30684,999,69530,.55504E-3,.488E-5,0
FENGYUN 1C DEB,1999-025AQU,2021-02-09T08:59:12.126624,14.50656361,.0203592,99.0560,66.2962,91.9575,23.6236,0,U,30686,999,73848,.52988E-4,.209E-5,0
FENGYUN 1C DEB,1999-025AQW,2021-02-09T04:02:23.239392,14.17768214,.0019234,98.8205,102.1802,34.1241,28.7246,0,U,30688,999,72123,.35534E-3,.682E-5,0
FENGYUN 1C DEB,1999-025AQX,2021-02-09T13:32:28.972608,14.08383542,.0116591,98.7032,68.9365,74.1166,80.2686,0,U,30689,999,72030,.23036E-4,.1E-7,0
FENGYUN 1C DEB,1999-025AQY,2021-02-09T10:02:12.098112,13.93557120,.0113377,99.1227,322.2860,232.6179,196.4023,0,U,30690,999,71035,.52828E-3,.686E-5,0
FENGYUN 1C DEB,1999-025AQZ,2021-02-09T17:44:36.624192,13.83902404,.0145396,98.8801,133.7154,350.1456,161.3985,0,U,30691,999,70686,.23342E-3,.239E-5,0
FENGYUN 1C DEB,1999-025ARB,2021-02-09T01:10:23.964672,14.10638918,.0031164,98.6718,67.2687,158.7191,201.5284,0,U,30693,999,71996,.79935E-4,.101E-5,0
FENGYUN 1C DEB,1999-025ARC,2021-02-09T06:25:38.008992,14.60587789,.0196422,99.0184,158.1115,348.3899,11.2801,0,U,30694,999,74163,.6053E-4,.315E-5,0
FENGYUN 1C DEB,1999-025ARE,2021-02-09T14:35:08.196000,14.33171485,.0105223,98.5837,92.2215,357.0346,155.7699,0,U,30696,999,72921,.15722E-3,.414E-5,0
FENGYUN 1C DEB,1999-025ARF,2021-02-09T01:53:27.024864,14.03757677,.0099614,99.0272,89.4289,95.7135,294.9549,0,U,30697,999,71398,.40316E-3,.62E-5,0
FENGYUN 1C DEB,1999-025ARH,2021-02-09T20:33:59.773248,14.24951862,.0004008,99.3347,5.8274,320.0962,39.9920,0,U,30699,999,72325,.27982E-3,.605E-5,0
FENGYUN 1C DEB,1999-025ARJ,2021-02-09T07:38:51.595008,14.21831482,.0088067,98.7579,80.3078,226.2479,133.1385,0,U,30700,999,72441,.42732E-4,.53E-6,0
FENGYUN 1C DEB,1999-025ARK,2021-02-09T14:09:42.732288,14.13802255,.0035717,98.9713,79.3373,82.5935,68.5884,0,U,30701,999,72148,.10538E-4,-.25E-6,0
FENGYUN 1C DEB,1999-025ARL,2021-02-09T14:45:45.314784,13.98644802,.0077098,98.9374,96.3067,164.2645,351.0050,0,U,30702,999,71545,.33464E-3,.45E-5,0
FENGYUN 1C DEB,1999-025ARM,2021-02-08T19:49:07.327200,14.08765205,.0135,98.9996,342.0388,229.5226,154.2936,0,U,30703,999,71583,.83083E-4,.11E-5,0
FENGYUN 1C DEB,1999-025ARN,2021-02-09T08:59:42.572256,14.00249510,.0080596,98.9142,67.7690,329.5827,155.8074,0,U,30704,999,71365,.23531E-3,.314E-5,0
FENGYUN 1C DEB,1999-025ARP,2021-02-09T03:12:44.314272,13.71611073,.0216698,102.2034,356.8956,114.5488,260.1231,0,U,30705,999,69712,.98398E-3,.985E-5,0
FENGYUN 1C DEB,1999-025ARQ,2021-02-09T09:53:13.129728,14.18771926,.0031442,99.1643,211.6283,130.0595,230.3344,0,U,30706,999,72518,.15823E-3,.283E-5,0
FENGYUN 1C DEB,1999-025ARR,2021-02-09T10:39:55.469664,14.13090636,.0035303,99.3906,326.0126,354.2065,71.3351,0,U,30707,999,71755,.30534E-3,.525E-5,0
FENGYUN 1C DEB,1999-025ARS,2021-02-09T14:22:37.496640,14.10952371,.0008897,98.8523,75.3179,165.6826,351.1446,0,U,30708,999,71908,.40218E-4,.28E-6,0
FENGYUN 1C DEB,1999-025ART,2021-02-09T13:06:11.530656,13.99903589,.0099285,99.1077,345.1275,141.4786,219.3518,0,U,30709,999,71164,.87388E-3,.1295E-4,0
FENGYUN 1C DEB,1999-025ARU,2021-02-09T04:02:49.207776,13.79960224,.0259859,102.7444,0.6973,237.3930,134.4974,0,U,30710,999,70319,.17541E-3,.161E-5,0
FENGYUN 1C DEB,1999-025ARY,2021-02-08T23:45:29.458656,13.99151972,.0069296,98.9807,111.4568,141.2779,32.3891,0,U,30714,999,71245,.23784E-4,-.8E-7,0
FENGYUN 1C DEB,1999-025ARZ,2021-02-09T08:47:56.645376,14.03492841,.007677,99.1091,87.1914,67.3408,293.5853,0,U,30715,999,71320,.26638E-3,.384E-5,0
FENGYUN 1C DEB,1999-025ASA,2021-02-09T13:12:54.888192,14.27492481,.0054013,98.8206,140.3344,293.6149,187.2602,0,U,30716,999,72367,.4244E-3,.1013E-4,0
FENGYUN 1C DEB,1999-025ASB,2021-02-09T12:12:30.322656,14.09702039,.0056135,99.1423,64.1562,202.2830,157.5899,0,U,30717,999,71569,.32198E-3,.527E-5,0
